[
    {
        "Altitude(m)": 612502.2409414586,
        "Argument of Periapsis(deg)": 0.0,
        "Eccentricity": 0.0,
        "Inclination(deg)": 60.0,
        "Latitude(deg)": -28.13612306009463,
        "Longitude(deg)": -132.85179520731725,
        "Mean Anomaly(deg)": -32.72729999999996,
        "RAAN(deg)": 345.0,
        "Satellite Name": "Test1 1538",
        "Satellite Number": 1538,
        "Semi-Major Axis(m)": 6980739.136638005,
        "Time(s)": 0
    },
    {
        "Altitude(m)": 612308.6884251453,
        "Argument of Periapsis(deg)": 0.00010418945913296404,
        "Eccentricity": 0.0,
        "Inclination(deg)": 60.0,
        "Latitude(deg)": -27.623178895192144,
        "Longitude(deg)": -132.49831962238974,
        "Mean Anomaly(deg)": -32.1071938545381,
        "RAAN(deg)": 344.99957995086027,
        "Satellite Name": "Test1 1538",
        "Satellite Number": 1538,
        "Semi-Major Axis(m)": 6980739.136638005,
        "Time(s)": 10
    }
]